;--------- THIS CODE HAS BEEN PROCESSED BY P2PP.NET POC ---
; Source: _sample_ping_block.gcode
; DisplayName: _sample_ping_block.out.gcode
; TimestampUtc: 2025-12-27T17:10:41.8385396Z
;
G1 X144.212 Y40.173 E4.90087
G1 X144.144 Y40.837 E0.02756
G1 X228.216 Y124.909 E4.90969
G1 X228.299 Y125.723 E0.03379
G1 X144.076 Y41.501 E4.91848
G1 X144.009 Y42.164 E0.02752
G1 X228.383 Y126.538 E4.92733
G1 X228.466 Y127.353 E0.03383
G1 X143.941 Y42.828 E4.93615
G1 X143.873 Y43.492 E0.02756
G1 X228.549 Y128.168 E4.94496
G1 X228.632 Y128.983 E0.03383
G1 X143.805 Y44.156 E4.95378
G1 X143.738 Y44.820 E0.02756
G1 X228.715 Y129.797 E4.96254
G1 X228.799 Y130.612 E0.03383
G1 X143.670 Y45.483 E4.97142
G1 X143.602 Y46.147 E0.02756
G1 X228.882 Y131.427 E4.98024
G1 X228.965 Y132.242 E0.03383
G1 X143.534 Y46.811 E4.98905
G1 X143.466 Y47.475 E0.02756
G1 X229.048 Y133.057 E4.99787
G1 X229.132 Y133.871 E0.03379
G1 X143.399 Y48.139 E5.00666
G1 X143.331 Y48.802 E0.02752
G1 X229.215 Y134.686 E5.01551
G1 X229.298 Y135.501 E0.03383
G1 X143.263 Y49.466 E5.02433
G1 X143.195 Y50.130 E0.02756
G1 X229.381 Y136.316 E5.03315
G1 X229.464 Y137.131 E0.03383
G1 X143.127 Y50.794 E5.04196
G1 X143.060 Y51.457 E0.02752
G1 X229.548 Y137.946 E5.05081
G1 X229.631 Y138.760 E0.03379
G1 X142.992 Y52.121 E5.05960
G1 X142.924 Y52.785 E0.02756
G1 X229.714 Y139.575 E5.06842
G1 X229.797 Y140.390 E0.03383
G1 X142.856 Y53.449 E5.07724
G1 X142.788 Y54.113 E0.02756
G1 X229.880 Y141.205 E5.08606
G1 X229.964 Y142.020 E0.03383
G1 X142.721 Y54.776 E5.09490
; --- P2PP - INSERT PING CODE 1 after   984.5424mm of extrusion
M400
G4 P0
O31 D447622b7
; --- P2PP - END PING CODE
G1 X142.653 Y55.440 E0.02756
G1 X230.047 Y142.834 E5.10369
G1 X230.130 Y143.649 E0.03383
G1 X142.585 Y56.104 E5.11251
G1 X142.517 Y56.768 E0.02756
G1 X230.213 Y144.464 E5.12133
G1 X230.297 Y145.279 E0.03383
G1 X142.449 Y57.432 E5.13018
G1 X142.382 Y58.095 E0.02752
G1 X230.380 Y146.094 E5.13899
G1 X230.463 Y146.908 E0.03379
G1 X142.314 Y58.759 E5.14778
G1 X142.246 Y59.423 E0.02756
G1 X230.546 Y147.723 E5.15660
G1 X230.629 Y148.538 E0.03383
G1 X142.178 Y60.087 E5.16542
G1 X142.111 Y60.751 E0.02756
G1 X230.713 Y149.353 E5.17424
G1 X230.796 Y150.168 E0.03383
G1 X142.043 Y61.414 E5.18308
G1 X141.975 Y62.078 E0.02756
G1 X230.879 Y150.982 E5.19187
G1 X230.962 Y151.797 E0.03383
G1 X141.907 Y62.742 E5.20069
G1 X141.839 Y63.406 E0.02756
G1 X231.045 Y152.612 E5.20951
G1 X231.129 Y153.427 E0.03383
G1 X141.772 Y64.070 E5.21833
G1 X141.704 Y64.733 E0.02752
G1 X231.212 Y154.242 E5.22718
G1 X231.295 Y155.056 E0.03379
G1 X141.636 Y65.397 E5.23596
G1 X141.568 Y66.061 E0.02756
G1 X231.378 Y155.871 E5.24478
G1 X231.462 Y156.686 E0.03383
G1 X141.500 Y66.725 E5.25363
G1 X141.433 Y67.389 E0.02756
G1 X231.545 Y157.501 E5.26242
G1 X231.628 Y158.316 E0.03383
G1 X141.365 Y68.052 E5.27127
G1 X141.297 Y68.716 E0.02756
