;WIDTH:0.65
; [--P2PP-- tool unload] - G1 X61.449 Y119.256
SET_PRESSURE_ADVANCE ADVANCE=0
;WIDTH:0.5
; [--P2PP-- tool unload] - G4 S0
M104 S240
; [--P2PP-- tool unload] - G1 F2000
; [--P2PP-- tool unload] - G1 Y119.896 F2400
; [--P2PP-- tool unload] - G4 S0
; Filament-specific end gcode
QUERY_PALETTE_STATS
; Pass the tool number to Klipper

SPOOL_CHANGE TOOL=0
G1 X61.449 Y119.896 F8640 ; P2PP positional alignment
G1 Z0.350 F8640 ; P2PP positional alignment
; [--P2PP-- Color Change] - T0
; Filament gcode

G1 F8640 ; correct speed
G1 F30000
G1 X61.449 Y119.896 F8640  ;P2PP Position XY to avoid tower crash
G1 X61.449 Y119.896
G1 Z0.350 F1800 ;recorded Z=0.35
G4 S0
G1 Y119.396
; CP TOOLCHANGE WIPE
;WIDTH:0.5
;P2PP START Z/E alignment processing
G1 Z0.350 ;>P2PP correct z-moves<
G1 E0.75000 ;--- P2PP --- fixup retracts
G1 F3000 ; P2PP Correct for speed, top to PURGETOPSPEED
;P2PP END Z/E alignment processing
G1 X100.449 E1.13780 F3000 ;-- SLOW DOWN 5940.0 --> 3000.0--;
G1 X99.699 Y119.896 E0.02630
G1 X60.949 E1.13050 F3000 ;-- SLOW DOWN 6750.0 --> 3000.0--;
G1 X61.699 Y120.396 E0.02630
G1 X99.699 E1.10860 F3000 ;-- SLOW DOWN 8244.0 --> 3000.0--;
G1 Y120.896 E0.01460
G1 X61.699 E1.10860 F3000 ;-- SLOW DOWN 13681.0 --> 3000.0--;
G1 Y121.396 E0.01460
G1 X100.449 E1.13050
G1 X99.699 Y121.896 E0.02630
G1 X60.949 E1.13050
G1 X61.699 Y122.396 E0.02630
G1 X99.699 E1.10860
G1 Y122.896 E0.01460
G1 X61.699 E1.10860
G1 Y123.396 E0.01460
G1 X100.449 E1.13050
G1 X99.699 Y123.896 E0.02630
G1 X60.949 E1.13050
G1 X61.699 Y124.396 E0.02630
G1 X99.699 E1.10860
G1 Y124.896 E0.01460
G1 X61.699 E1.10860
G1 Y125.396 E0.01460
G1 X100.449 E1.13050
G1 X99.699 Y125.896 E0.02630
G1 X60.949 E1.13050
G1 X61.699 Y126.396 E0.02630
G1 X99.699 E1.10860
G1 Y126.896 E0.01460
G1 X61.699 E1.10860
G1 Y127.396 E0.01460
G1 X100.449 E1.13050
G1 X99.699 Y127.896 E0.02630
G1 X60.949 E1.13050
G1 X61.699 Y128.396 E0.02630
G1 X99.699 E1.10860
G1 Y128.896 E0.01460
G1 X61.699 E1.10860
G1 Y129.396 E0.01460
G1 X100.449 E1.13050
G1 X99.699 Y129.896 E0.02630
G1 X60.949 E1.13050
G1 X61.699 Y130.396 E0.02630
G1 X99.699 E1.10860
G1 Y130.896 E0.01460
G1 X61.699 E1.10860
